{"type": "FeatureCollection", "features": [ {"type": "Feature", "properties": {"norad_id": 66652, "name": "2025-274C", "group": "last-30-days", "lat": 8.09982434077164, "lon": 98.11277509785394, "alt_km": 591.9411912941769, "timestamp": "2025-12-15T20:48:52.614542+00:00", "meta": {"OBJECT_NAME": "2025-274C", "OBJECT_ID": "2025-274C", "EPOCH": "2025-12-14T08:38:02.061312", "MEAN_MOTION": 14.91914655, "ECCENTRICITY": 0.0010232, "INCLINATION": 97.739, "RA_OF_ASC_NODE": 275.5236, "ARG_OF_PERICENTER": 251.2114, "MEAN_ANOMALY": 108.7995, "EPHEMERIS_TYPE": 0, "CLASSIFICATION_TYPE": "U", "NORAD_CAT_ID": 66652, "ELEMENT_SET_NO": 999, "REV_AT_EPOCH": 264, "BSTAR": 0.00040133299, "MEAN_MOTION_DOT": 4.008e-05, "MEAN_MOTION_DDOT": 0}, "tle": {"line1": "1 66652U 25274C   25348.35974608  .00004008  00000+0  40133-3 0  9994", "line2": "2 66652  97.7390 275.5236 0010232 251.2114 108.7995 14.91914655  2642"}}, "geometry": {"type": "Point", "coordinates": [98.11277509785394, 8.09982434077164]}}, {"type": "Feature", "properties": {"norad_id": 66653, "name": "2025-274D", "group": "last-30-days", "lat": 7.661117040871269, "lon": 98.0518849641672, "alt_km": 591.2466095243153, "timestamp": "2025-12-15T20:48:52.614552+00:00", "meta": {"OBJECT_NAME": "2025-274D", "OBJECT_ID": "2025-274D", "EPOCH": "2025-12-14T08:37:55.084512", "MEAN_MOTION": 14.9191974, "ECCENTRICITY": 0.00111413, "INCLINATION": 97.7388, "RA_OF_ASC_NODE": 275.5235, "ARG_OF_PERICENTER": 247.1824, "MEAN_ANOMALY": 112.8218, "EPHEMERIS_TYPE": 0, "CLASSIFICATION_TYPE": "U", "NORAD_CAT_ID": 66653, "ELEMENT_SET_NO": 999, "REV_AT_EPOCH": 264, "BSTAR": 0.0003446485, "MEAN_MOTION_DOT": 3.434e-05, "MEAN_MOTION_DDOT": 0}, "tle": {"line1": "1 66653U 25274D   25348.35966533  .00003434  00000+0  34465-3 0  9996", "line2": "2 66653  97.7388 275.5235 0011141 247.1824 112.8218 14.91919740  2645"}}, "geometry": {"type": "Point", "coordinates": [98.0518849641672, 7.661117040871269]}}, {"type": "Feature", "properties": {"norad_id": 66654, "name": "JACK E", "group": "last-30-days", "lat": -3.9190068420315987, "lon": 96.47549190584915, "alt_km": 590.8442131749371, "timestamp": "2025-12-15T20:48:52.614564+00:00", "meta": {"OBJECT_NAME": "JACK E", "OBJECT_ID": "2025-274E", "EPOCH": "2025-12-14T08:35:02.534208", "MEAN_MOTION": 14.92097197, "ECCENTRICITY": 0.00116568, "INCLINATION": 97.7391, "RA_OF_ASC_NODE": 275.5266, "ARG_OF_PERICENTER": 248.9562, "MEAN_ANOMALY": 111.0411, "EPHEMERIS_TYPE": 0, "CLASSIFICATION_TYPE": "U", "NORAD_CAT_ID": 66654, "ELEMENT_SET_NO": 999, "REV_AT_EPOCH": 264, "BSTAR": 0.00038694322, "MEAN_MOTION_DOT": 3.881e-05, "MEAN_MOTION_DDOT": 0}, "tle": {"line1": "1 66654U 25274E   25348.35766822  .00003881  00000+0  38694-3 0  9990", "line2": "2 66654  97.7391 275.5266 0011656 248.9562 111.0411 14.92097197  2643"}}, "geometry": {"type": "Point", "coordinates": [96.47549190584915, -3.9190068420315987]}}, {"type": "Feature", "properties": {"norad_id": 66655, "name": "2025-274F", "group": "last-30-days", "lat": 3.3667896376933113, "lon": 97.46286658740802, "alt_km": 600.6789771230133, "timestamp": "2025-12-15T20:48:52.614575+00:00", "meta": {"OBJECT_NAME": "2025-274F", "OBJECT_ID": "2025-274F", "EPOCH": "2025-12-14T18:15:25.236000", "MEAN_MOTION": 14.91100488, "ECCENTRICITY": 0.00052118, "INCLINATION": 97.7328, "RA_OF_ASC_NODE": 275.9206, "ARG_OF_PERICENTER": 9.5015, "MEAN_ANOMALY": 350.6301, "EPHEMERIS_TYPE": 0, "CLASSIFICATION_TYPE": "U", "NORAD_CAT_ID": 66655, "ELEMENT_SET_NO": 999, "REV_AT_EPOCH": 270, "BSTAR": 1.5560755e-05, "MEAN_MOTION_DOT": 9.9e-07, "MEAN_MOTION_DDOT": 0}, "tle": {"line1": "1 66655U 25274F   25348.76070875  .00000099  00000+0  15561-4 0  9999", "line2": "2 66655  97.7328 275.9206 0005211   9.5015 350.6301 14.91100488  2709"}}, "geometry": {"type": "Point", "coordinates": [97.46286658740802, 3.3667896376933113]}}, {"type": "Feature", "properties": {"norad_id": 66656, "name": "2025-274G", "group": "last-30-days", "lat": -16.5662710615923, "lon": 94.6957883489904, "alt_km": 590.0506408298825, "timestamp": "2025-12-15T20:48:52.614585+00:00", "meta": {"OBJECT_NAME": "2025-274G", "OBJECT_ID": "2025-274G", "EPOCH": "2025-12-14T21:24:20.324160", "MEAN_MOTION": 14.92290822, "ECCENTRICITY": 0.00123217, "INCLINATION": 97.7391, "RA_OF_ASC_NODE": 276.056, "ARG_OF_PERICENTER": 248.7923, "MEAN_ANOMALY": 111.198, "EPHEMERIS_TYPE": 0, "CLASSIFICATION_TYPE": "U", "NORAD_CAT_ID": 66656, "ELEMENT_SET_NO": 999, "REV_AT_EPOCH": 272, "BSTAR": 0.00029156278, "MEAN_MOTION_DOT": 2.925e-05, "MEAN_MOTION_DDOT": 0}, "tle": {"line1": "1 66656U 25274G   25348.89190190  .00002925  00000+0  29156-3 0  9991", "line2": "2 66656  97.7391 276.0560 0012321 248.7923 111.1980 14.92290822  2728"}}, "geometry": {"type": "Point", "coordinates": [94.6957883489904, -16.5662710615923]}}, {"type": "Feature", "properties": {"norad_id": 66657, "name": "SPIRONE", "group": "last-30-days", "lat": -28.779919532311997, "lon": 92.73493270628168, "alt_km": 591.9685748404836, "timestamp": "2025-12-15T20:48:52.614597+00:00", "meta": {"OBJECT_NAME": "SPIRONE", "OBJECT_ID": "2025-274H", "EPOCH": "2025-12-14T21:21:11.889216", "MEAN_MOTION": 14.92469641, "ECCENTRICITY": 0.0010573, "INCLINATION": 97.7387, "RA_OF_ASC_NODE": 276.0581, "ARG_OF_PERICENTER": 267.8338, "MEAN_ANOMALY": 92.1671, "EPHEMERIS_TYPE": 0, "CLASSIFICATION_TYPE": "U", "NORAD_CAT_ID": 66657, "ELEMENT_SET_NO": 999, "REV_AT_EPOCH": 272, "BSTAR": 0.00029561901, "MEAN_MOTION_DOT": 2.979e-05, "MEAN_MOTION_DDOT": 0}, "tle": {"line1": "1 66657U 25274H   25348.88972094  .00002979  00000+0  29562-3 0  9992", "line2": "2 66657  97.7387 276.0581 0010573 267.8338  92.1671 14.92469641  2728"}}, "geometry": {"type": "Point", "coordinates": [92.73493270628168, -28.779919532311997]}}, {"type": "Feature", "properties": {"norad_id": 66658, "name": "2025-274J", "group": "last-30-days", "lat": -40.58777401222195, "lon": 90.33366579148021, "alt_km": 590.92206303283, "timestamp": "2025-12-15T20:48:52.614609+00:00", "meta": {"OBJECT_NAME": "2025-274J", "OBJECT_ID": "2025-274J", "EPOCH": "2025-12-14T08:25:53.036256", "MEAN_MOTION": 14.92638037, "ECCENTRICITY": 0.00111631, "INCLINATION": 97.7387, "RA_OF_ASC_NODE": 275.5339, "ARG_OF_PERICENTER": 272.7846, "MEAN_ANOMALY": 87.2096, "EPHEMERIS_TYPE": 0, "CLASSIFICATION_TYPE": "U", "NORAD_CAT_ID": 66658, "ELEMENT_SET_NO": 999, "REV_AT_EPOCH": 264, "BSTAR": 0.00039942717, "MEAN_MOTION_DOT": 4.063e-05, "MEAN_MOTION_DDOT": 0}, "tle": {"line1": "1 66658U 25274J   25348.35130829  .00004063  00000+0  39943-3 0  9997", "line2": "2 66658  97.7387 275.5339 0011163 272.7846  87.2096 14.92638037  2643"}}, "geometry": {"type": "Point", "coordinates": [90.33366579148021, -40.58777401222195]}}, {"type": "Feature", "properties": {"norad_id": 66659, "name": "JACK K", "group": "last-30-days", "lat": -53.11832603777231, "lon": 86.5884259398357, "alt_km": 589.3775558608277, "timestamp": "2025-12-15T20:48:52.614619+00:00", "meta": {"OBJECT_NAME": "JACK K", "OBJECT_ID": "2025-274K", "EPOCH": "2025-12-14T08:22:43.259520", "MEAN_MOTION": 14.92822234, "ECCENTRICITY": 0.00118757, "INCLINATION": 97.7386, "RA_OF_ASC_NODE": 275.5374, "ARG_OF_PERICENTER": 274.3397, "MEAN_ANOMALY": 85.6466, "EPHEMERIS_TYPE": 0, "CLASSIFICATION_TYPE": "U", "NORAD_CAT_ID": 66659, "ELEMENT_SET_NO": 999, "REV_AT_EPOCH": 264, "BSTAR": 0.00038564877, "MEAN_MOTION_DOT": 3.94e-05, "MEAN_MOTION_DDOT": 0}, "tle": {"line1": "1 66659U 25274K   25348.34911180  .00003940  00000+0  38565-3 0  9996", "line2": "2 66659  97.7386 275.5374 0011875 274.3397  85.6466 14.92822234  2648"}}, "geometry": {"type": "Point", "coordinates": [86.5884259398357, -53.11832603777231]}}, {"type": "Feature", "properties": {"norad_id": 66660, "name": "K-HERO", "group": "last-30-days", "lat": -63.09626782663615, "lon": 81.48959020165758, "alt_km": 587.9849659418387, "timestamp": "2025-12-15T20:48:52.614631+00:00", "meta": {"OBJECT_NAME": "K-HERO", "OBJECT_ID": "2025-274L", "EPOCH": "2025-12-14T06:43:39.323136", "MEAN_MOTION": 14.92970721, "ECCENTRICITY": 0.00125171, "INCLINATION": 97.7389, "RA_OF_ASC_NODE": 275.4745, "ARG_OF_PERICENTER": 275.0183, "MEAN_ANOMALY": 84.9607, "EPHEMERIS_TYPE": 0, "CLASSIFICATION_TYPE": "U", "NORAD_CAT_ID": 66660, "ELEMENT_SET_NO": 999, "REV_AT_EPOCH": 263, "BSTAR": 0.00036576832, "MEAN_MOTION_DOT": 3.748e-05, "MEAN_MOTION_DDOT": 0}, "tle": {"line1": "1 66660U 25274L   25348.28031624  .00003748  00000+0  36577-3 0  9994", "line2": "2 66660  97.7389 275.4745 0012517 275.0183  84.9607 14.92970721  2632"}}, "geometry": {"type": "Point", "coordinates": [81.48959020165758, -63.09626782663615]}}, {"type": "Feature", "properties": {"norad_id": 66661, "name": "SNUGLITE-III", "group": "last-30-days", "lat": -72.51893781837313, "lon": 71.45666341056618, "alt_km": 586.7493768370368, "timestamp": "2025-12-15T20:48:52.614644+00:00", "meta": {"OBJECT_NAME": "SNUGLITE-III", "OBJECT_ID": "2025-274M", "EPOCH": "2025-12-14T21:09:40.112064", "MEAN_MOTION": 14.93109567, "ECCENTRICITY": 0.0013166, "INCLINATION": 97.739, "RA_OF_ASC_NODE": 276.0694, "ARG_OF_PERICENTER": 274.0765, "MEAN_ANOMALY": 85.895, "EPHEMERIS_TYPE": 0, "CLASSIFICATION_TYPE": "U", "NORAD_CAT_ID": 66661, "ELEMENT_SET_NO": 999, "REV_AT_EPOCH": 272, "BSTAR": 0.00023282468, "MEAN_MOTION_DOT": 2.373e-05, "MEAN_MOTION_DDOT": 0}, "tle": {"line1": "1 66661U 25274M   25348.88171426  .00002373  00000+0  23282-3 0  9998", "line2": "2 66661  97.7390 276.0694 0013166 274.0765  85.8950 14.93109567  2725"}}, "geometry": {"type": "Point", "coordinates": [71.45666341056618, -72.51893781837313]}}]}